{
  "type": "FeatureCollection",
  "features": [
    {
      "type": "Feature",
      "properties": {
        "norad_id": 66568,
        "name": "STARLINK-35803",
        "group": "last-30-days",
        "lat": -19.654135638292885,
        "lon": 15.41790238423163,
        "alt_km": 429.8767217321183,
        "timestamp": "2025-12-26T22:28:04.495594+00:00",
        "meta_object_name": "STARLINK-35803",
        "meta_object_id": "2025-268M",
        "meta_epoch": "2025-12-26T18:00:02.998944",
        "meta_mean_motion": 15.46662899,
        "meta_eccentricity": 0.0001438,
        "meta_inclination": 43.0003,
        "meta_ra_of_asc_node": 39.0359,
        "meta_arg_of_pericenter": 281.842,
        "meta_mean_anomaly": 91.3032,
        "meta_ephemeris_type": 0,
        "meta_classification_type": "U",
        "meta_norad_cat_id": 66568,
        "meta_element_set_no": 999,
        "meta_rev_at_epoch": 598,
        "meta_bstar": -0.038053,
        "meta_mean_motion_dot": -0.01731968,
        "meta_mean_motion_ddot": 0,
        "tle_line1": "1 66568U 25268M   25360.75003471 -.01731968  00000+0 -38053-1 0  9993",
        "tle_line2": "2 66568  43.0003  39.0359 0001438 281.8420  91.3032 15.46662899  5989"
      },
      "geometry": {
        "type": "Point",
        "coordinates": [
          15.41790238423163,
          -19.654135638292885
        ]
      }
    },
    {
      "type": "Feature",
      "properties": {
        "norad_id": 66569,
        "name": "STARLINK-35835",
        "group": "last-30-days",
        "lat": 0.5937222549093677,
        "lon": 38.51730349438547,
        "alt_km": 429.0098455868656,
        "timestamp": "2025-12-26T22:28:04.495605+00:00",
        "meta_object_name": "STARLINK-35835",
        "meta_object_id": "2025-268N",
        "meta_epoch": "2025-12-26T18:00:02.998944",
        "meta_mean_motion": 15.46557103,
        "meta_eccentricity": 0.0001433,
        "meta_inclination": 43,
        "meta_ra_of_asc_node": 38.9618,
        "meta_arg_of_pericenter": 275.2863,
        "meta_mean_anomaly": 128.413,
        "meta_ephemeris_type": 0,
        "meta_classification_type": "U",
        "meta_norad_cat_id": 66569,
        "meta_element_set_no": 999,
        "meta_rev_at_epoch": 604,
        "meta_bstar": -0.04577,
        "meta_mean_motion_dot": -0.02071289,
        "meta_mean_motion_ddot": 0,
        "tle_line1": "1 66569U 25268N   25360.75003471 -.02071289  00000+0 -45770-1 0  9992",
        "tle_line2": "2 66569  43.0000  38.9618 0001433 275.2863 128.4130 15.46557103  6046"
      },
      "geometry": {
        "type": "Point",
        "coordinates": [
          38.51730349438547,
          0.5937222549093677
        ]
      }
    },
    {
      "type": "Feature",
      "properties": {
        "norad_id": 66570,
        "name": "STARLINK-35834",
        "group": "last-30-days",
        "lat": 19.482214666008982,
        "lon": -163.91831706363408,
        "alt_km": 470.54228354280167,
        "timestamp": "2025-12-26T22:28:04.495616+00:00",
        "meta_object_name": "STARLINK-35834",
        "meta_object_id": "2025-268P",
        "meta_epoch": "2025-12-26T18:00:02.998944",
        "meta_mean_motion": 15.31848048,
        "meta_eccentricity": 0.0001212,
        "meta_inclination": 43.0014,
        "meta_ra_of_asc_node": 39.4496,
        "meta_arg_of_pericenter": 290.0079,
        "meta_mean_anomaly": 273.2764,
        "meta_ephemeris_type": 0,
        "meta_classification_type": "U",
        "meta_norad_cat_id": 66570,
        "meta_element_set_no": 999,
        "meta_rev_at_epoch": 598,
        "meta_bstar": -0.071808,
        "meta_mean_motion_dot": -0.02036129,
        "meta_mean_motion_ddot": 0,
        "tle_line1": "1 66570U 25268P   25360.75003471 -.02036129  00000+0 -71808-1 0  9999",
        "tle_line2": "2 66570  43.0014  39.4496 0001212 290.0079 273.2764 15.31848048  5981"
      },
      "geometry": {
        "type": "Point",
        "coordinates": [
          -163.91831706363408,
          19.482214666008982
        ]
      }
    },
    {
      "type": "Feature",
      "properties": {
        "norad_id": 66571,
        "name": "STARLINK-35836",
        "group": "last-30-days",
        "lat": 7.2230470683054895,
        "lon": -149.4693760627599,
        "alt_km": 469.6320053631698,
        "timestamp": "2025-12-26T22:28:04.495630+00:00",
        "meta_object_name": "STARLINK-35836",
        "meta_object_id": "2025-268Q",
        "meta_epoch": "2025-12-26T18:00:02.998944",
        "meta_mean_motion": 15.32688485,
        "meta_eccentricity": 0.0001155,
        "meta_inclination": 43.0013,
        "meta_ra_of_asc_node": 39.4062,
        "meta_arg_of_pericenter": 288.0494,
        "meta_mean_anomaly": 293.3235,
        "meta_ephemeris_type": 0,
        "meta_classification_type": "U",
        "meta_norad_cat_id": 66571,
        "meta_element_set_no": 999,
        "meta_rev_at_epoch": 609,
        "meta_bstar": -0.070175,
        "meta_mean_motion_dot": -0.02042778,
        "meta_mean_motion_ddot": 0,
        "tle_line1": "1 66571U 25268Q   25360.75003471 -.02042778  00000+0 -70175-1 0  9993",
        "tle_line2": "2 66571  43.0013  39.4062 0001155 288.0494 293.3235 15.32688485  6091"
      },
      "geometry": {
        "type": "Point",
        "coordinates": [
          -149.4693760627599,
          7.2230470683054895
        ]
      }
    },
    {
      "type": "Feature",
      "properties": {
        "norad_id": 66572,
        "name": "STARLINK-35870",
        "group": "last-30-days",
        "lat": -12.797502318414447,
        "lon": -127.61492361464146,
        "alt_km": 467.08868288218855,
        "timestamp": "2025-12-26T22:28:04.495641+00:00",
        "meta_object_name": "STARLINK-35870",
        "meta_object_id": "2025-268R",
        "meta_epoch": "2025-12-26T18:00:02.998944",
        "meta_mean_motion": 15.34138788,
        "meta_eccentricity": 0.0001097,
        "meta_inclination": 43.0002,
        "meta_ra_of_asc_node": 39.3382,
        "meta_arg_of_pericenter": 270.8884,
        "meta_mean_anomaly": 339.0975,
        "meta_ephemeris_type": 0,
        "meta_classification_type": "U",
        "meta_norad_cat_id": 66572,
        "meta_element_set_no": 999,
        "meta_rev_at_epoch": 609,
        "meta_bstar": -0.066793,
        "meta_mean_motion_dot": -0.02036954,
        "meta_mean_motion_ddot": 0,
        "tle_line1": "1 66572U 25268R   25360.75003471 -.02036954  00000+0 -66793-1 0  9994",
        "tle_line2": "2 66572  43.0002  39.3382 0001097 270.8884 339.0975 15.34138788  6098"
      },
      "geometry": {
        "type": "Point",
        "coordinates": [
          -127.61492361464146,
          -12.797502318414447
        ]
      }
    },
    {
      "type": "Feature",
      "properties": {
        "norad_id": 66573,
        "name": "STARLINK-35650",
        "group": "last-30-days",
        "lat": -23.66676609511187,
        "lon": -113.71171258809484,
        "alt_km": 465.3295089327494,
        "timestamp": "2025-12-26T22:28:04.495652+00:00",
        "meta_object_name": "STARLINK-35650",
        "meta_object_id": "2025-268S",
        "meta_epoch": "2025-12-26T18:00:02.998944",
        "meta_mean_motion": 15.34975537,
        "meta_eccentricity": 0.0001089,
        "meta_inclination": 43.0011,
        "meta_ra_of_asc_node": 39.2968,
        "meta_arg_of_pericenter": 268.2121,
        "meta_mean_anomaly": 358.3314,
        "meta_ephemeris_type": 0,
        "meta_classification_type": "U",
        "meta_norad_cat_id": 66573,
        "meta_element_set_no": 999,
        "meta_rev_at_epoch": 592,
        "meta_bstar": -0.064967,
        "meta_mean_motion_dot": -0.02035408,
        "meta_mean_motion_ddot": 0,
        "tle_line1": "1 66573U 25268S   25360.75003471 -.02035408  00000+0 -64967-1 0  9999",
        "tle_line2": "2 66573  43.0011  39.2968 0001089 268.2121 358.3314 15.34975537  5927"
      },
      "geometry": {
        "type": "Point",
        "coordinates": [
          -113.71171258809484,
          -23.66676609511187
        ]
      }
    },
    {
      "type": "Feature",
      "properties": {
        "norad_id": 66574,
        "name": "STARLINK-35812",
        "group": "last-30-days",
        "lat": -32.80059098607418,
        "lon": -98.0496816768253,
        "alt_km": 463.28590134801107,
        "timestamp": "2025-12-26T22:28:04.495662+00:00",
        "meta_object_name": "STARLINK-35812",
        "meta_object_id": "2025-268T",
        "meta_epoch": "2025-12-26T18:00:02.998944",
        "meta_mean_motion": 15.3581103,
        "meta_eccentricity": 0.0001033,
        "meta_inclination": 43,
        "meta_ra_of_asc_node": 39.2578,
        "meta_arg_of_pericenter": 262.4969,
        "meta_mean_anomaly": 20.0446,
        "meta_ephemeris_type": 0,
        "meta_classification_type": "U",
        "meta_norad_cat_id": 66574,
        "meta_element_set_no": 999,
        "meta_rev_at_epoch": 604,
        "meta_bstar": -0.063283,
        "meta_mean_motion_dot": -0.02003098,
        "meta_mean_motion_ddot": 0,
        "tle_line1": "1 66574U 25268T   25360.75003471 -.02003098  00000+0 -63283-1 0  9990",
        "tle_line2": "2 66574  43.0000  39.2578 0001033 262.4969  20.0446 15.35811030  6049"
      },
      "geometry": {
        "type": "Point",
        "coordinates": [
          -98.0496816768253,
          -32.80059098607418
        ]
      }
    }
  ]
}